[
    {
        "Altitude(m)": 607886.6742729296,
        "Argument of Periapsis(deg)": 0.0,
        "Eccentricity": 0.0,
        "Inclination(deg)": 60.0,
        "Latitude(deg)": 40.99839713164035,
        "Longitude(deg)": -125.02699331463208,
        "Mean Anomaly(deg)": 49.09089999999999,
        "RAAN(deg)": 305.0,
        "Satellite Name": "Test1 1345",
        "Satellite Number": 1345,
        "Semi-Major Axis(m)": 6980739.136638005,
        "Time(s)": 0
    },
    {
        "Altitude(m)": 607987.5881755687,
        "Argument of Periapsis(deg)": 0.00010418945913296404,
        "Eccentricity": 0.0,
        "Inclination(deg)": 60.0,
        "Latitude(deg)": 41.46348693754251,
        "Longitude(deg)": -124.52276535516518,
        "Mean Anomaly(deg)": 49.711006145461845,
        "RAAN(deg)": 304.99957995086027,
        "Satellite Name": "Test1 1345",
        "Satellite Number": 1345,
        "Semi-Major Axis(m)": 6980739.136638005,
        "Time(s)": 10
    }
]